     2.12           N: GNSS NAV DATA    E: GALILEO          RINEX VERSION / TYPE
GS10 V12.10                             08-DEC-23 23:59     PGM / RUN BY / DATE
GAL    1.4125D+02 -5.0000D-01 -5.4016D-03  0.0000D+00       IONOSPHERIC CORR
GAUT -9.3132257462D-10 8.881784197D-16 432000 2291          TIME SYSTEM CORR
GPGA -1.8917489797D-09 0.000000000D+00 518400 2291          TIME SYSTEM CORR
    18    18  1929     7                                    LEAP SECONDS
                                                            END OF HEADER
E08 2023 12 09 10 10 00-1.894567394629D-04-5.854872142663D-12 0.000000000000D+00
     2.900000000000D+01-3.968750000000D+00 3.664438352852D-09 1.764462068356D-03
    -8.754432201385D-08 2.117743715644D-04 4.680827260017D-06 5.440597030640D+03
     5.550000000000D+05 5.215406417847D-08 9.606962428661D-01 2.235174179077D-08
     9.655667974700D-01 2.405000000000D+02 1.077497290041D+00-5.783098032103D-09
     1.375057276655D-10 2.580000000000D+02 2.291000000000D+03 0.000000000000D+00
     3.120000000000D+00 0.000000000000D+00-3.492459654808D-09 0.000000000000D+00
     5.557000000000D+05
E15 2023 12 09 10 10 00-7.377495057881D-05-2.017941369559D-12 0.000000000000D+00
     2.900000000000D+01-1.727500000000D+02 2.485460672271D-09-1.640030573605D+00
    -7.946044206619D-06 3.549733664840D-04 7.631257176399D-06 5.440607587814D+03
     5.550000000000D+05 2.421438694000D-08-1.132184613016D+00 1.862645149231D-08
     9.997517156262D-01 1.959062500000D+02-1.460923824953D+00-5.413439777210D-09
    -2.239378993409D-10 2.580000000000D+02 2.291000000000D+03 0.000000000000D+00
     3.120000000000D+00 0.000000000000D+00 6.053596735001D-09 0.000000000000D+00
     5.557000000000D+05
E03 2023 12 09 10 10 00-7.892120629549D-05-2.657429831743D-12 0.000000000000D+00
     2.900000000000D+01-2.687500000000D+00 3.734441268754D-09 6.577906179053D-01
    -9.499490261078D-08 2.914292272180D-04 4.552304744720D-06 5.440593536377D+03
     5.550000000000D+05-4.284083843231D-08 9.615123858446D-01 4.284083843231D-08
     9.596779816629D-01 2.405000000000D+02 1.185872929716D+00-5.802027392015D-09
     1.567922453121D-10 2.580000000000D+02 2.291000000000D+03 0.000000000000D+00
     3.120000000000D+00 0.000000000000D+00 2.793967723846D-09 0.000000000000D+00
     5.557000000000D+05
E02 2023 12 09 10 10 00 8.515710942447D-05 3.126388037344D-12 0.000000000000D+00
     2.900000000000D+01 1.797812500000D+02 2.798688005161D-09-5.826422116954D-01
     8.275732398033D-06 4.544709809124D-04 9.160488843918D-06 5.440637897491D+03
     5.550000000000D+05 8.568167686462D-08 3.063576642676D+00 3.725290298462D-09
     9.684034161065D-01 1.470625000000D+02 3.561414845052D-01-5.498800475683D-09
     1.114332130692D-10 2.580000000000D+02 2.291000000000D+03 0.000000000000D+00
     3.120000000000D+00 0.000000000000D+00-2.328306436539D-10 0.000000000000D+00
     5.557000000000D+05
E26 2023 12 09 10 10 00 3.045152407140D-04 1.112709924200D-11 0.000000000000D+00
     2.900000000000D+01-1.669062500000D+02 2.513318975538D-09-2.839147403097D+00
    -7.826834917068D-06 3.379130503163D-04 6.197020411491D-06 5.440606412888D+03
     5.550000000000D+05 2.607703208923D-08-1.131352474492D+00-4.470348358154D-08
     9.931173119166D-01 2.201562500000D+02-1.864489092026D+00-5.450941339301D-09
    -2.178662178596D-10 2.580000000000D+02 2.291000000000D+03 0.000000000000D+00
     3.120000000000D+00 0.000000000000D+00-4.190951585770D-09 0.000000000000D+00
     5.557000000000D+05
E24 2023 12 09 10 10 00-4.761348827742D-04-2.096101070492D-11 0.000000000000D+00
     2.900000000000D+01 1.576250000000D+02 2.784401695793D-09 6.290489692259D-01
     7.465481758118D-06 6.944088963792D-04 9.547919034958D-06 5.440636934280D+03
     5.550000000000D+05-5.960464477539D-08 3.063820456991D+00-4.284083843231D-08
     9.658443042521D-01 1.418750000000D+02 7.127595057972D-01-5.404510833855D-09
    -7.857470152314D-12 5.170000000000D+02 2.291000000000D+03 0.000000000000D+00
     3.120000000000D+00 0.000000000000D+00-3.725290298462D-09-4.656612873077D-09
     5.558740000000D+05
E24 2023 12 09 10 10 00-4.761335439980D-04-2.096101070492D-11 0.000000000000D+00
     2.900000000000D+01 1.576250000000D+02 2.784401695793D-09 6.290489692259D-01
     7.465481758118D-06 6.944088963792D-04 9.547919034958D-06 5.440636934280D+03
     5.550000000000D+05-5.960464477539D-08 3.063820456991D+00-4.284083843231D-08
     9.658443042521D-01 1.418750000000D+02 7.127595057972D-01-5.404510833855D-09
    -7.857470152314D-12 2.580000000000D+02 2.291000000000D+03 0.000000000000D+00
     3.120000000000D+00 0.000000000000D+00-3.725290298462D-09 0.000000000000D+00
     5.559000000000D+05
E13 2023 12 09 10 10 00-1.965824048966D-05-1.421085471520D-14 0.000000000000D+00
     2.900000000000D+01-1.747812500000D+02 2.416529229571D-09-2.486654630849D+00
    -8.001923561096D-06 2.957314718515D-04 6.740912795067D-06 5.440611543655D+03
     5.550000000000D+05 3.166496753693D-08-1.132120472836D+00 1.117587089539D-08
     9.997948044153D-01 2.130000000000D+02-1.410193660272D+00-5.429154717515D-09
    -2.310810540249D-10 5.170000000000D+02 2.291000000000D+03 0.000000000000D+00
     3.120000000000D+00 0.000000000000D+00 5.355104804039D-09 5.587935447693D-09
     5.561140000000D+05
E13 2023 12 09 10 10 00-1.965806586668D-05-1.421085471520D-14 0.000000000000D+00
     2.900000000000D+01-1.747812500000D+02 2.416529229571D-09-2.486654630849D+00
    -8.001923561096D-06 2.957314718515D-04 6.740912795067D-06 5.440611543655D+03
     5.550000000000D+05 3.166496753693D-08-1.132120472836D+00 1.117587089539D-08
     9.997948044153D-01 2.130000000000D+02-1.410193660272D+00-5.429154717515D-09
    -2.310810540249D-10 2.580000000000D+02 2.291000000000D+03 0.000000000000D+00
     3.120000000000D+00 0.000000000000D+00 5.355104804039D-09 0.000000000000D+00
     5.561500000000D+05
E02 2023 12 09 10 20 00 8.515774970874D-05 3.126388037344D-12 0.000000000000D+00
     3.000000000000D+01 1.798125000000D+02 2.794402112350D-09-5.082669971891D-01
     8.279457688332D-06 4.544697003439D-04 9.160488843918D-06 5.440637895584D+03
     5.556000000000D+05 8.940696716309D-08 3.063573332092D+00 1.676380634308D-08
     9.684035433804D-01 1.470000000000D+02 3.561504404897D-01-5.489871532328D-09
     1.082187934614D-10 5.170000000000D+02 2.291000000000D+03 0.000000000000D+00
     3.120000000000D+00 0.000000000000D+00-2.328306436539D-10-9.313225746155D-10
     5.562640000000D+05
E24 2023 12 09 10 20 00-4.761474556290D-04-2.096101070492D-11 0.000000000000D+00
     3.000000000000D+01 1.557187500000D+02 2.783330222590D-09 7.029822829938D-01
     7.363036274910D-06 6.945087807253D-04 9.646639227867D-06 5.440637588501D+03
     5.556000000000D+05-4.656612873077D-08 3.063817283922D+00-4.656612873077D-08
     9.658443218071D-01 1.400937500000D+02 7.132105614769D-01-5.408796726666D-09
    -1.571494030463D-11 5.170000000000D+02 2.291000000000D+03 0.000000000000D+00
     3.120000000000D+00 0.000000000000D+00-3.725290298462D-09-4.656612873077D-09
     5.562640000000D+05
E03 2023 12 09 10 20 00-7.892295252532D-05-2.657429831743D-12 0.000000000000D+00
     3.000000000000D+01-2.312500000000D+00 3.731941164615D-09 7.323409554089D-01
    -7.636845111847D-08 2.914158394560D-04 4.557892680168D-06 5.440593437195D+03
     5.556000000000D+05-4.656612873077D-08 9.615088499716D-01 3.352761268616D-08
     9.596780840671D-01 2.404062500000D+02 1.185709131167D+00-5.796670026002D-09
     1.603638226540D-10 5.170000000000D+02 2.291000000000D+03 0.000000000000D+00
     3.120000000000D+00 0.000000000000D+00 2.793967723846D-09 3.259629011154D-09
     5.562640000000D+05
E13 2023 12 09 10 20 00-1.965824048966D-05-1.421085471520D-14 0.000000000000D+00
     3.000000000000D+01-1.741875000000D+02 2.423315226520D-09-2.413185120629D+00
    -7.973983883858D-06 2.958119148389D-04 6.845220923424D-06 5.440610982895D+03
     5.556000000000D+05 2.980232238770D-08-1.132123723440D+00 1.117587089539D-08
     9.997946595864D-01 2.108125000000D+02-1.409278356317D+00-5.430226190717D-09
    -2.314382117591D-10 5.170000000000D+02 2.291000000000D+03 0.000000000000D+00
     3.120000000000D+00 0.000000000000D+00 5.355104804039D-09 5.587935447693D-09
     5.562640000000D+05
E24 2023 12 09 10 20 00-4.761461750604D-04-2.094679985021D-11 0.000000000000D+00
     3.000000000000D+01 1.557187500000D+02 2.783330222590D-09 7.029822829938D-01
     7.363036274910D-06 6.945087807253D-04 9.646639227867D-06 5.440637588501D+03
     5.556000000000D+05-4.656612873077D-08 3.063817283922D+00-4.656612873077D-08
     9.658443218071D-01 1.400937500000D+02 7.132105614769D-01-5.408796726666D-09
    -1.571494030463D-11 2.580000000000D+02 2.291000000000D+03 0.000000000000D+00
     3.120000000000D+00 0.000000000000D+00-3.725290298462D-09 0.000000000000D+00
     5.563000000000D+05
E03 2023 12 09 10 20 00-7.892277790233D-05-2.657429831743D-12 0.000000000000D+00
     3.000000000000D+01-2.312500000000D+00 3.731941164615D-09 7.323409554089D-01
    -7.636845111847D-08 2.914158394560D-04 4.557892680168D-06 5.440593437195D+03
     5.556000000000D+05-4.656612873077D-08 9.615088499716D-01 3.352761268616D-08
     9.596780840671D-01 2.404062500000D+02 1.185709131167D+00-5.796670026002D-09
     1.603638226540D-10 2.580000000000D+02 2.291000000000D+03 0.000000000000D+00
     3.120000000000D+00 0.000000000000D+00 2.793967723846D-09 0.000000000000D+00
     5.563000000000D+05
E02 2023 12 09 10 20 00 8.515897206962D-05 3.126388037344D-12 0.000000000000D+00
     3.000000000000D+01 1.798125000000D+02 2.794402112350D-09-5.082669971891D-01
     8.279457688332D-06 4.544697003439D-04 9.160488843918D-06 5.440637895584D+03
     5.556000000000D+05 8.940696716309D-08 3.063573332092D+00 1.676380634308D-08
     9.684035433804D-01 1.470000000000D+02 3.561504404897D-01-5.489871532328D-09
     1.082187934614D-10 2.580000000000D+02 2.291000000000D+03 0.000000000000D+00
     3.120000000000D+00 0.000000000000D+00-2.328306436539D-10 0.000000000000D+00
     5.563000000000D+05
